STARLINK-5687           
1 55473U 23015AA  25175.97799698  .00074589  00000+0  12272-2 0  9997
2 55473  42.9886 198.7516 0035564  31.4901 328.8079 15.50712035133015
STARLINK-5689           
1 55474U 23015AB  25175.70349061  .00000251  00000+0  33646-4 0  9999
2 55474  43.0031 301.0220 0001394 265.7246  94.3437 15.02535745131793
STARLINK-5650           
1 55475U 23015AC  25175.99173894  .00000381  00000+0  43309-4 0  9991
2 55475  43.0050 285.8961 0001471 271.8006  88.2668 15.02537862131996
STARLINK-5685           
1 55477U 23015AE  25175.32844845 -.00000145  00000+0  43550-5 0  9999
2 55477  43.0033 277.3677 0001309 273.2711  86.7982 15.02533025132033
STARLINK-5691           
1 55478U 23015AF  25175.99211517  .00000520  00000+0  53597-4 0  9994
2 55478  43.0037 273.7486 0001375 268.7484  91.3201 15.02534996132130
STARLINK-5688           
1 55479U 23015AG  25176.00210471  .00000147  00000+0  25994-4 0  9991
2 55479  43.0040 273.8239 0001495 269.0458  91.0213 15.02537336132131
STARLINK-5690           
1 55480U 23015AH  25175.62367996  .00000732  00000+0  69266-4 0  9995
2 55480  43.0045 301.2042 0001269 276.8337  83.2361 15.02525038131780
STARLINK-5694           
1 55481U 23015AJ  25176.03144000 -.00000379  00000+0 -12964-4 0  9993
2 55481  43.0040 299.1853 0001276 273.7521  86.3175 15.02533506131843
STARLINK-5692           
1 55483U 23015AL  25175.62258372 -.00000188  00000+0  11353-5 0  9996
2 55483  43.0049 301.2751 0001534 267.1611  92.9055 15.02534311131788
STARLINK-5696           
1 55484U 23015AM  25175.61370527 -.00000238  00000+0 -25244-5 0  9994
2 55484  43.0039 301.2101 0001215 271.9828  88.0875 15.02533156131788
STARLINK-5695           
1 55485U 23015AN  25176.02811044  .00000154  00000+0  26449-4 0  9997
2 55485  43.0052 299.1602 0001348 267.3369  92.7319 15.02532219131662
STARLINK-5704           
1 55486U 23015AP  25175.61591805 -.00000163  00000+0  30260-5 0  9990
2 55486  43.0054 301.1830 0001492 265.7383  94.3289 15.02534582131782
STARLINK-5701           
1 55487U 23015AQ  25176.02921761  .00000288  00000+0  36398-4 0  9999
2 55487  43.0040 299.1663 0001593 259.8045 100.2617 15.02537438131841
STARLINK-5706           
1 55488U 23015AR  25175.73889041 -.00000381  00000+0 -13160-4 0  9999
2 55488  43.0048 300.4242 0001385 264.7621  95.3064 15.02533262131800
STARLINK-5371           
1 55489U 23015AS  25175.61925499 -.00000193  00000+0  80964-6 0  9993
2 55489  43.0041 301.2541 0001393 264.1150  95.9533 15.02533930131781
STARLINK-5373           
1 55490U 23015AT  25175.61703046 -.00000511  00000+0 -22773-4 0  9994
2 55490  43.0043 301.2267 0001292 268.9217  91.1477 15.02537713131603
STARLINK-5364           
1 55491U 23015AU  25175.53775014 -.00000138  00000+0  48828-5 0  9994
2 55491  43.0034 275.4927 0001357 270.7470  89.3217 15.02536133132071
STARLINK-5013           
1 55492U 23015AV  25175.60926692  .00000076  00000+0  20672-4 0  9999
2 55492  43.0045 301.1717 0001516 274.1609  85.9060 15.02530664131785
STARLINK-5362           
1 55493U 23015AW  25175.34668947  .00000984  00000+0  87858-4 0  9994
2 55493  43.0042 302.6397 0001309 274.2677  85.8016 15.02543366131748
STARLINK-5344           
1 55494U 23015AX  25175.73001240 -.00000076  00000+0  94712-5 0  9996
2 55494  43.0046 300.3563 0001119 271.9616  88.1098 15.02534257131801
STARLINK-5100           
1 55495U 23015AY  25175.98878537  .00000088  00000+0  21580-4 0  9999
2 55495  43.0040 273.7228 0001355 267.1375  92.9312 15.02537687131956
STARLINK-5363           
1 55497U 23015BA  25175.72890341 -.00000112  00000+0  67924-5 0  9992
2 55497  43.0034 300.3514 0001300 266.8574  93.2120 15.02533841131806
STARLINK-5365           
1 55498U 23015BB  25175.38763396 -.00000734  00000+0 -39245-4 0  9999
2 55498  43.0044 302.0869 0001444 271.9280  88.1397 15.02532010131750
STARLINK-5366           
1 55499U 23015BC  25175.71336312 -.00000243  00000+0 -29427-5 0  9998
2 55499  43.0047 300.2330 0001151 267.5739  92.4971 15.02532562132559
STARLINK-5141           
1 55500U 23015BD  25175.72557137 -.00000439  00000+0 -17428-4 0  9996
2 55500  43.0047 300.3236 0001199 265.4547  94.6159 15.02534474131807
STARLINK-5367           
1 55501U 23015BE  25176.04797006  .00000384  00000+0  43493-4 0  9992
2 55501  43.0037 298.4323 0001220 273.7108  86.3595 15.02534281131854
STARLINK-5749           
1 55569U 23020A   25175.48024870  .00000042  00000+0  18201-4 0  9991
2 55569  43.0049 328.0434 0001244 270.9522  89.1178 15.02532981130075
STARLINK-5737           
1 55570U 23020B   25175.48246798 -.00000195  00000+0  62328-6 0  9999
2 55570  43.0049 328.0645 0001839 283.6903  76.3734 15.02536763130073
STARLINK-5739           
1 55571U 23020C   25175.14453203 -.00000209  00000+0 -39433-6 0  9992
2 55571  43.0039 329.8286 0001104 267.9503  92.1213 15.02533663130028
STARLINK-5732           
1 55572U 23020D   25176.13725502  .00000356  00000+0  41409-4 0  9992
2 55572  43.0055 324.3740 0001475 271.3648  88.7025 15.02537380130170
STARLINK-5738           
1 55573U 23020E   25175.47359022 -.00000314  00000+0 -82013-5 0  9992
2 55573  43.0036 327.9970 0001458 269.2265  90.8410 15.02533899130078
STARLINK-5747           
1 55574U 23020F   25176.12837802 -.00000175  00000+0  21512-5 0  9994
2 55574  43.0053 324.3099 0001392 265.3007  94.7676 15.02535214130170
STARLINK-5745           
1 55575U 23020G   25175.80153588  .00000191  00000+0  29203-4 0  9992
2 55575  43.0043 326.1528 0001166 267.3053  92.7656 15.02538377130123
STARLINK-5751           
1 55576U 23020H   25175.70893895 -.00000436  00000+0 -17189-4 0  9998
2 55576  43.0040 300.3335 0001153 267.0208  93.0502 15.02536588130414
STARLINK-5752           
1 55577U 23020J   25176.13058807  .00000260  00000+0  34333-4 0  9996
2 55577  43.0043 324.2598 0001302 268.0314  92.0380 15.02536823130177
STARLINK-5754           
1 55579U 23020L   25176.11062022 -.00000722  00000+0 -38397-4 0  9999
2 55579  43.0045 324.1761 0001122 269.6990  90.3724 15.02534345130179
STARLINK-5757           
1 55580U 23020M   25176.03910887  .00000640  00000+0  62447-4 0  9993
2 55580  43.0054 298.5101 0001437 268.7620  91.3058 15.02537788130469
STARLINK-5753           
1 55581U 23020N   25175.79265713  .00000063  00000+0  19706-4 0  9996
2 55581  43.0040 326.0850 0001082 244.0187 116.0544 15.02536328130121
STARLINK-5741           
1 55582U 23020P   25176.06993429 -.00000850  00000+0 -47851-4 0  9998
2 55582  43.0049 311.7638 0002380 266.7471  93.3099 15.02540227130311
STARLINK-5742           
1 55583U 23020Q   25175.71952596  .00000156  00000+0  26657-4 0  9998
2 55583  43.0048 326.4020 0001260 270.5404  89.5294 15.02532226130116
STARLINK-5736           
1 55584U 23020R   25175.78378101  .00000117  00000+0  23719-4 0  9993
2 55584  43.0052 326.0216 0001278 266.6428  93.4268 15.02534320130129
STARLINK-5769           
1 55585U 23020S   25175.81509824  .00004288  00000+0  33208-3 0  9992
2 55585  43.0046 313.2987 0001316 252.2200 107.8499 15.02565157130272
STARLINK-5767           
1 55586U 23020T   25176.10840077 -.00002422  00000+0 -16431-3 0  9993
2 55586  43.0080 324.1632 0001216 276.1445  83.9259 15.02532439130178
STARLINK-5727           
1 55587U 23020U   25175.44916481  .00000868  00000+0  79299-4 0  9995
2 55587  43.0039 327.7515 0001135 274.5564  85.5148 15.02534714130078
STARLINK-5728           
1 55588U 23020V   25176.10174230  .00000017  00000+0  16324-4 0  9994
2 55588  43.0036 324.1112 0001417 267.7905  92.2775 15.02533599130178
STARLINK-5697           
1 55589U 23020W   25176.10728986 -.00000027  00000+0  13044-4 0  9996
2 55589  43.0053 324.1457 0001389 255.5698 104.4990 15.02533927130172
STARLINK-5762           
1 55590U 23020X   25176.09507798  .00000608  00000+0  60089-4 0  9997
2 55590  43.0051 324.0615 0001456 272.3121  87.7555 15.02536597130176
STARLINK-5760           
1 55591U 23020Y   25175.77267691  .00000741  00000+0  69937-4 0  9996
2 55591  43.0044 325.9409 0001225 266.5819  93.4884 15.02533906130128
STARLINK-5759           
1 55592U 23020Z   25176.09064090  .00000016  00000+0  16266-4 0  9993
2 55592  43.0057 324.0295 0001391 274.5950  85.4734 15.02536735130178
STARLINK-5703           
1 55593U 23020AA  25175.50010639 -.00000115  00000+0  65433-5 0  9991
2 55593  43.0049 327.3352 0001235 262.5497  97.5205 15.02536966130083
STARLINK-5750           
1 55594U 23020AB  25175.48900947  .00000178  00000+0  28287-4 0  9992
2 55594  43.0054 327.2517 0001453 263.7923  96.2754 15.02535139130087
STARLINK-5740           
1 55595U 23020AC  25176.25001157  .01248008  00000+0  76382-2 0  9998
2 55595  43.0026 308.6898 0001849 260.9738 187.7126 15.73969056130361
STARLINK-5729           
1 55596U 23020AD  25175.68622318  .00000341  00000+0  40303-4 0  9994
2 55596  43.0049 326.1543 0001238 269.5726  90.4975 15.02536796130111
STARLINK-5743           
1 55597U 23020AE  25176.07770200  .00000413  00000+0  45651-4 0  9994
2 55597  43.0045 311.8304 0001326 267.6169  92.4521 15.02536815130315
STARLINK-5756           
1 55598U 23020AF  25176.08768642 -.00000242  00000+0 -28106-5 0  9992
2 55598  43.0043 311.8719 0001506 267.9189  92.1481 15.02534257130319
STARLINK-5761           
1 55599U 23020AG  25176.08435759  .00000213  00000+0  30845-4 0  9991
2 55599  43.0051 311.8470 0001245 270.0016  90.0684 15.02535967130307
STARLINK-5755           
1 55600U 23020AH  25175.73975955  .00000950  00000+0  85393-4 0  9998
2 55600  43.0044 313.5753 0001346 265.7560  94.3128 15.02533153130262
STARLINK-5744           
1 55601U 23020AJ  25175.48346501 -.00000615  00000+0 -30473-4 0  9999
2 55601  43.0044 327.2115 0001316 266.8893  93.1799 15.02530194130088
STARLINK-5764           
1 55602U 23020AK  25176.08215417  .00001650  00000+0  13716-3 0  9996
2 55602  43.0043 311.8259 0001407 262.3459  97.7223 15.02534543130316
